{
"type": "FeatureCollection",
"name": "india_outline",
"crs": { "type": "name", "properties": { "name": "urn:ogc:def:crs:OGC:1.3:CRS84" } },
"features": [
{ "type": "Feature", "properties": { }, "geometry": { "type": "MultiPolygon", "coordinates": [ [ [ [ 76.22504, 9.828049 ], [ 75.92281, 10.60952 ], [ 75.86668, 10.65746 ], [ 75.93804, 10.78633 ], [ 75.86054, 10.77659 ], [ 75.78034, 11.12833 ], [ 75.67164, 11.34736 ], [ 75.49663, 11.66413 ], [ 75.20663, 11.98044 ], [ 74.95508, 12.45558 ], [ 74.78017, 12.90303 ], [ 74.67084, 13.35126 ], [ 74.65189, 13.60045 ], [ 74.70454, 13.58502 ], [ 74.6949, 13.62656 ], [ 74.64922, 13.62916 ], [ 74.56416, 13.89349 ], [ 74.48289, 14.01123 ], [ 74.3643, 14.50414 ], [ 74.31364, 14.50654 ], [ 74.25027, 14.75107 ], [ 74.1854, 14.81252 ], [ 74.22776, 14.86847 ], [ 74.12498, 14.88338 ], [ 74.09455, 14.94202 ], [ 74.02625, 14.9541 ], [ 73.94747, 15.05879 ], [ 73.90075, 15.3019 ], [ 73.81835, 15.36184 ], [ 73.85767, 15.3927 ], [ 73.70534, 15.71924 ], [ 73.59961, 15.9281 ], [ 73.52615, 15.93895 ], [ 73.34067, 16.53114 ], [ 73.37042, 16.56459 ], [ 73.31171, 17.0695 ], [ 73.23246, 17.29019 ], [ 73.28414, 17.28063 ], [ 73.20794, 17.3824 ], [ 73.19272, 17.5409 ], [ 73.25951, 17.57364 ], [ 73.18861, 17.60306 ], [ 73.09272, 17.92635 ], [ 73.119, 18.00804 ], [ 73.04148, 18.02697 ], [ 72.99079, 18.21869 ], [ 72.99776, 18.26818 ], [ 73.04359, 18.26685 ], [ 72.96901, 18.36299 ], [ 72.98689, 18.542 ], [ 72.92555, 18.72588 ], [ 72.95634, 18.79192 ], [ 73.02329, 18.77733 ], [ 73.02021, 18.83577 ], [ 72.9463, 18.87986 ], [ 73.05489, 19.09422 ], [ 72.89458, 18.98412 ], [ 72.83785, 19.30091 ], [ 72.92777, 19.35955 ], [ 72.81989, 19.38857 ], [ 72.80906, 19.49502 ], [ 72.87186, 19.52028 ], [ 72.86465, 19.58227 ], [ 72.77304, 19.56628 ], [ 72.72214, 19.82275 ], [ 72.73597, 19.95039 ], [ 72.80157, 19.95718 ], [ 72.8686, 20.32225 ], [ 72.96516, 20.45523 ], [ 72.97995, 20.6162 ], [ 72.80451, 21.08354 ], [ 72.75542, 21.06509 ], [ 72.70732, 21.2694 ], [ 72.81937, 21.53559 ], [ 72.93656, 21.58242 ], [ 72.94395, 21.63465 ], [ 72.65485, 21.63355 ], [ 72.70872, 21.87146 ], [ 72.65513, 21.85855 ], [ 72.6181, 21.90627 ], [ 72.60815, 22.10004 ], [ 72.67133, 22.16123 ], [ 72.5415, 22.15245 ], [ 72.49015, 22.26298 ], [ 72.44, 22.06648 ], [ 72.37508, 21.9754 ], [ 72.42753, 21.60308 ], [ 72.24085, 21.19803 ], [ 71.55136, 20.86118 ], [ 71.49512, 20.88128 ], [ 71.47756, 20.83236 ], [ 70.94521, 20.70526 ], [ 70.34789, 21.03011 ], [ 69.51878, 21.88604 ], [ 69.35462, 22.00529 ], [ 69.13744, 22.30437 ], [ 69.18146, 22.51137 ], [ 69.23103, 22.43035 ], [ 69.35726, 22.41879 ], [ 69.38432, 22.29577 ], [ 69.82564, 22.38877 ], [ 69.88985, 22.4612 ], [ 70.33623, 22.5502 ], [ 70.49833, 22.85391 ], [ 70.60408, 22.94144 ], [ 70.65345, 23.03506 ], [ 70.59348, 23.0381 ], [ 70.46284, 22.92456 ], [ 70.42593, 23.06118 ], [ 70.40245, 22.95095 ], [ 70.03342, 22.86934 ], [ 69.8987, 22.77274 ], [ 69.36163, 22.89169 ], [ 68.85551, 23.17991 ], [ 68.78119, 23.25897 ], [ 68.89275, 23.27695 ], [ 68.85457, 23.36765 ], [ 68.79636, 23.36546 ], [ 68.7158, 23.47091 ], [ 68.61555, 23.45266 ], [ 68.64694, 23.56211 ], [ 68.60654, 23.60581 ], [ 68.72028, 23.92518 ], [ 68.6618, 23.93471 ], [ 68.65501, 23.80075 ], [ 68.51368, 23.61042 ], [ 68.35859, 23.63431 ], [ 68.37108, 23.91297 ], [ 68.41465, 23.98693 ], [ 68.57004, 24.02171 ], [ 68.59218, 24.34349 ], [ 68.63795, 24.38417 ], [ 68.71423, 24.30068 ], [ 68.75804, 24.33937 ], [ 68.8327, 24.2909 ], [ 69.44613, 24.32529 ], [ 69.58937, 24.23903 ], [ 69.78325, 24.20277 ], [ 69.89905, 24.25783 ], [ 69.98351, 24.37637 ], [ 70.41532, 24.46186 ], [ 70.46926, 24.2556 ], [ 70.65266, 24.24768 ], [ 70.96159, 24.44998 ], [ 70.8551, 24.53718 ], [ 70.97844, 24.72647 ], [ 70.77948, 25.05746 ], [ 70.75157, 25.20539 ], [ 70.5771, 25.43427 ], [ 70.54472, 25.76068 ], [ 70.21094, 25.75736 ], [ 70.03256, 25.89178 ], [ 69.9737, 26.09029 ], [ 70.05688, 26.23837 ], [ 70.05526, 26.63473 ], [ 69.75584, 26.64787 ], [ 69.45406, 26.81612 ], [ 69.37761, 26.93513 ], [ 69.52144, 27.26494 ], [ 69.98106, 27.64944 ], [ 70.17958, 27.97495 ], [ 70.45044, 28.10966 ], [ 70.58311, 28.03742 ], [ 70.68417, 27.81018 ], [ 70.83769, 27.76649 ], [ 71.25972, 27.90152 ], [ 71.65444, 27.91017 ], [ 71.82908, 27.97052 ], [ 71.8905, 28.15114 ], [ 72.1768, 28.43766 ], [ 72.36502, 28.77864 ], [ 72.93133, 29.07916 ], [ 73.10157, 29.26892 ], [ 73.30209, 29.61001 ], [ 73.42516, 29.96323 ], [ 73.80347, 30.08125 ], [ 73.96964, 30.1839 ], [ 73.98753, 30.26504 ], [ 73.90829, 30.39141 ], [ 73.96649, 30.43397 ], [ 73.94551, 30.47087 ], [ 74.09435, 30.54516 ], [ 74.43616, 30.9406 ], [ 74.76963, 31.09118 ], [ 74.60086, 31.08313 ], [ 74.55181, 31.13082 ], [ 74.56206, 31.32905 ], [ 74.66736, 31.43368 ], [ 74.54594, 31.72274 ], [ 74.66936, 31.86427 ], [ 74.98516, 32.03674 ], [ 75.30899, 32.11192 ], [ 75.42027, 32.26281 ], [ 75.14666, 32.4341 ], [ 75.16589, 32.46277 ], [ 74.76095, 32.49726 ], [ 74.70107, 32.59882 ], [ 74.76344, 32.81994 ], [ 74.57516, 32.7585 ], [ 74.47464, 32.79885 ], [ 74.39866, 32.79256 ], [ 74.10456, 32.90045 ], [ 73.96685, 33.00344 ], [ 73.87136, 32.98849 ], [ 73.62206, 33.10814 ], [ 73.69179, 33.27684 ], [ 73.62352, 33.36844 ], [ 73.68599, 33.69411 ], [ 73.64115, 33.86437 ], [ 73.55464, 33.97823 ], [ 73.61219, 34.11313 ], [ 73.61904, 34.26546 ], [ 73.51115, 34.39423 ], [ 73.57061, 34.54794 ], [ 73.7853, 34.5808 ], [ 73.8634, 34.7554 ], [ 74.15482, 34.89142 ], [ 74.21049, 35.05626 ], [ 74.20172, 35.12053 ], [ 73.83943, 35.2187 ], [ 73.81615, 35.34248 ], [ 73.91649, 35.47039 ], [ 73.80325, 35.49975 ], [ 73.61628, 35.45573 ], [ 73.28082, 35.68787 ], [ 73.27244, 35.81596 ], [ 72.98169, 35.8431 ], [ 72.89519, 35.80289 ], [ 72.67083, 35.87224 ], [ 72.70233, 36.19547 ], [ 72.95432, 36.28513 ], [ 73.23023, 36.55638 ], [ 73.22742, 36.63087 ], [ 73.28855, 36.68382 ], [ 74.00891, 36.68062 ], [ 74.08414, 36.70749 ], [ 73.89919, 36.77443 ], [ 73.82729, 36.86411 ], [ 73.98428, 36.87315 ], [ 74.22499, 36.80858 ], [ 74.56968, 36.93388 ], [ 74.70804, 36.92615 ], [ 74.84269, 37.03473 ], [ 75.0061, 36.89359 ], [ 75.09432, 36.87899 ], [ 75.42215, 36.98677 ], [ 75.58782, 36.7681 ], [ 75.89221, 36.52351 ], [ 76.26307, 36.36464 ], [ 76.34663, 36.28296 ], [ 76.44434, 36.28133 ], [ 76.61443, 36.12849 ], [ 76.79191, 36.07993 ], [ 76.87503, 35.94923 ], [ 76.83624, 35.84912 ], [ 76.88495, 35.80128 ], [ 77.021, 35.72356 ], [ 77.50415, 35.64044 ], [ 77.55862, 35.46219 ], [ 77.43603, 35.46616 ], [ 77.58261, 35.39698 ], [ 77.8006, 35.47306 ], [ 78.00011, 35.41244 ], [ 78.03185, 35.52081 ], [ 78.20384, 35.47646 ], [ 78.36578, 35.65714 ], [ 78.77322, 35.78326 ], [ 79.2275, 35.74028 ], [ 79.27739, 35.88958 ], [ 79.38531, 35.91912 ], [ 79.53162, 35.79298 ], [ 79.81773, 35.70197 ], [ 80.04053, 35.72254 ], [ 80.14368, 35.57475 ], [ 80.33583, 35.46438 ], [ 80.32112, 35.29716 ], [ 80.05246, 34.61496 ], [ 79.84151, 34.55865 ], [ 79.77139, 34.38755 ], [ 79.56326, 34.41011 ], [ 79.60423, 34.1755 ], [ 79.4451, 33.9575 ], [ 79.1703, 34.02706 ], [ 79.15633, 33.9688 ], [ 78.9684, 33.99342 ], [ 78.94469, 33.93797 ], [ 78.99415, 33.79048 ], [ 79.07734, 33.71841 ], [ 79.05106, 33.63456 ], [ 79.12261, 33.59636 ], [ 78.98693, 33.57572 ], [ 78.99327, 33.31294 ], [ 79.14368, 33.2336 ], [ 79.45246, 33.19179 ], [ 79.47919, 33.16123 ], [ 79.38743, 32.93384 ], [ 79.6237, 32.69226 ], [ 79.59872, 32.62821 ], [ 79.46734, 32.49088 ], [ 79.34435, 32.53459 ], [ 79.31422, 32.47879 ], [ 79.18369, 32.45258 ], [ 79.1936, 32.38804 ], [ 79.14423, 32.34528 ], [ 78.97136, 32.30277 ], [ 78.81019, 32.41564 ], [ 78.78316, 32.60447 ], [ 78.50929, 32.57171 ], [ 78.44552, 32.48663 ], [ 78.54114, 32.3985 ], [ 78.49571, 32.19438 ], [ 78.64144, 32.15363 ], [ 78.81904, 31.8893 ], [ 78.76118, 31.83996 ], [ 78.73883, 31.68039 ], [ 78.86332, 31.53328 ], [ 78.73802, 31.42156 ], [ 78.82472, 31.37178 ], [ 78.93773, 31.19118 ], [ 79.07832, 31.40177 ], [ 79.16096, 31.3778 ], [ 79.29589, 31.24771 ], [ 79.41912, 31.00085 ], [ 79.64952, 30.89239 ], [ 79.87896, 30.92462 ], [ 80.11559, 30.71534 ], [ 80.14844, 30.74827 ], [ 80.22411, 30.72115 ], [ 80.2044, 30.54039 ], [ 80.56146, 30.39534 ], [ 80.63771, 30.40335 ], [ 81.08729, 30.13111 ], [ 80.86814, 30.13704 ], [ 80.78566, 30.04078 ], [ 80.78589, 29.95884 ], [ 80.60746, 29.96008 ], [ 80.52702, 29.89716 ], [ 80.38032, 29.5733 ], [ 80.23345, 29.42632 ], [ 80.22563, 29.35456 ], [ 80.3205, 29.25503 ], [ 80.31062, 29.18793 ], [ 80.10229, 29.02944 ], [ 80.05214, 28.79263 ], [ 80.30691, 28.69048 ], [ 80.27863, 28.65535 ], [ 80.40376, 28.60467 ], [ 80.53926, 28.59493 ], [ 80.54327, 28.63325 ], [ 80.77819, 28.47368 ], [ 81.18969, 28.31012 ], [ 81.35236, 28.1082 ], [ 81.42001, 28.10773 ], [ 81.80905, 27.84953 ], [ 81.90282, 27.80698 ], [ 81.97891, 27.88128 ], [ 82.06416, 27.87174 ], [ 82.49558, 27.63173 ], [ 82.70065, 27.64606 ], [ 82.76949, 27.46931 ], [ 83.20621, 27.39771 ], [ 83.27464, 27.36841 ], [ 83.30218, 27.2876 ], [ 83.37753, 27.27594 ], [ 83.42605, 27.44573 ], [ 83.65602, 27.42642 ], [ 83.84755, 27.31683 ], [ 83.89517, 27.32282 ], [ 83.83792, 27.39149 ], [ 83.86555, 27.42352 ], [ 84.03863, 27.40564 ], [ 84.13528, 27.44947 ], [ 84.30825, 27.33068 ], [ 84.64856, 27.26414 ], [ 84.71118, 27.13568 ], [ 84.68979, 26.9876 ], [ 85.16548, 26.82374 ], [ 85.26472, 26.72559 ], [ 85.658, 26.82312 ], [ 85.73901, 26.74341 ], [ 85.74954, 26.59956 ], [ 85.87189, 26.53124 ], [ 86.06055, 26.60918 ], [ 86.16402, 26.60191 ], [ 86.41837, 26.55304 ], [ 86.79049, 26.3823 ], [ 87.07369, 26.54852 ], [ 87.09379, 26.44368 ], [ 87.38409, 26.33712 ], [ 87.51559, 26.41475 ], [ 87.68253, 26.3663 ], [ 87.93021, 26.43922 ], [ 88.06116, 26.33891 ], [ 88.18238, 26.52817 ], [ 88.23039, 26.76643 ], [ 88.18237, 26.9171 ], [ 88.03819, 27.04626 ], [ 88.07466, 27.41664 ], [ 88.13728, 27.61771 ], [ 88.21935, 27.75836 ], [ 88.1674, 27.90119 ], [ 88.44964, 27.96257 ], [ 88.62381, 28.08112 ], [ 88.72968, 28.08104 ], [ 88.86284, 28.0014 ], [ 88.93565, 27.86199 ], [ 88.82703, 27.42272 ], [ 88.9338, 27.3047 ], [ 88.79675, 27.16616 ], [ 88.90826, 27.10343 ], [ 88.91873, 27.01135 ], [ 89.22655, 26.81093 ], [ 89.47161, 26.85627 ], [ 89.68204, 26.80048 ], [ 89.72898, 26.72404 ], [ 89.92184, 26.7172 ], [ 90.24525, 26.76828 ], [ 90.31918, 26.88174 ], [ 90.45349, 26.91773 ], [ 90.54451, 26.84939 ], [ 90.72112, 26.78934 ], [ 91.05145, 26.79061 ], [ 91.17281, 26.84686 ], [ 91.40437, 26.8097 ], [ 91.49992, 26.87034 ], [ 91.60663, 26.82532 ], [ 91.79315, 26.84088 ], [ 91.96201, 26.95577 ], [ 92.15989, 26.88238 ], [ 92.22435, 26.94489 ], [ 92.09696, 27.19844 ], [ 92.18546, 27.3649 ], [ 92.06371, 27.51806 ], [ 91.68678, 27.57008 ], [ 91.62311, 27.64131 ], [ 91.68865, 27.77723 ], [ 91.66703, 27.89546 ], [ 92.00677, 27.76105 ], [ 92.2578, 27.91868 ], [ 92.39642, 27.86548 ], [ 92.5734, 27.9066 ], [ 92.78098, 28.03283 ], [ 92.72171, 28.14912 ], [ 92.76892, 28.2125 ], [ 93.28307, 28.41823 ], [ 93.22212, 28.50363 ], [ 93.34402, 28.69936 ], [ 93.42911, 28.74276 ], [ 94.02635, 28.79474 ], [ 94.03308, 28.92567 ], [ 94.25323, 29.18244 ], [ 94.64684, 29.42401 ], [ 94.76672, 29.37407 ], [ 94.81266, 29.29254 ], [ 95.04234, 29.28132 ], [ 95.35783, 29.15481 ], [ 95.49959, 29.16168 ], [ 95.63931, 29.37315 ], [ 96.09983, 29.58589 ], [ 96.3199, 29.34635 ], [ 96.41634, 29.41291 ], [ 96.43155, 29.34966 ], [ 96.3689, 29.26979 ], [ 96.18916, 29.19357 ], [ 96.22214, 29.032 ], [ 96.39096, 29.14487 ], [ 96.54918, 29.1731 ], [ 96.53913, 29.10451 ], [ 96.65615, 28.86948 ], [ 96.38824, 28.65356 ], [ 96.40234, 28.59962 ], [ 96.32081, 28.55697 ], [ 96.37952, 28.50189 ], [ 96.44325, 28.46327 ], [ 96.67907, 28.58804 ], [ 96.91158, 28.48977 ], [ 97.16119, 28.49323 ], [ 97.45483, 28.36604 ], [ 97.38502, 28.23591 ], [ 97.46212, 28.15136 ], [ 97.42819, 28.06306 ], [ 97.3345, 28.04354 ], [ 96.97783, 27.76332 ], [ 97.07383, 27.52303 ], [ 97.25426, 27.28306 ], [ 97.21651, 27.24971 ], [ 96.98222, 27.36326 ], [ 96.82664, 27.54676 ], [ 96.62643, 27.44408 ], [ 96.30509, 27.40026 ], [ 96.14542, 27.32469 ], [ 96.00678, 27.16001 ], [ 95.52728, 26.7961 ], [ 95.37562, 26.77695 ], [ 95.25092, 26.68345 ], [ 95.20445, 26.52168 ], [ 95.30093, 26.11916 ], [ 95.14146, 25.9383 ], [ 95.15445, 25.79104 ], [ 94.92989, 25.54232 ], [ 94.81859, 25.52793 ], [ 94.73846, 25.30472 ], [ 94.89759, 25.11357 ], [ 94.75191, 24.76625 ], [ 94.71107, 24.77444 ], [ 94.47647, 24.33033 ], [ 94.40473, 24.04469 ], [ 94.284, 23.94045 ], [ 94.18615, 23.91068 ], [ 93.89544, 23.97361 ], [ 93.9138, 24.04003 ], [ 93.50378, 24.03457 ], [ 93.27879, 23.63634 ], [ 93.31433, 23.44279 ], [ 93.1946, 23.18488 ], [ 93.06036, 23.0359 ], [ 92.99832, 22.84543 ], [ 92.92603, 22.74815 ], [ 93.06756, 22.38576 ], [ 93.02511, 22.24235 ], [ 92.94759, 22.20934 ], [ 92.8632, 22.02859 ], [ 92.59341, 22.16961 ], [ 92.56051, 22.03188 ], [ 92.50217, 22.01235 ], [ 92.52093, 22.14912 ], [ 92.3938, 22.42943 ], [ 92.4258, 22.73959 ], [ 92.26866, 22.90013 ], [ 92.27638, 23.0967 ], [ 92.21318, 23.23352 ], [ 92.27864, 23.29831 ], [ 92.20076, 23.39564 ], [ 92.15824, 23.5661 ], [ 92.193, 23.69251 ], [ 92.14474, 23.77043 ], [ 91.94062, 23.68212 ], [ 91.82317, 23.72246 ], [ 91.8307, 23.47412 ], [ 91.69755, 23.34111 ], [ 91.71195, 23.11392 ], [ 91.5853, 22.96412 ], [ 91.47717, 23.00617 ], [ 91.29298, 23.27108 ], [ 91.29871, 23.12115 ], [ 91.21613, 23.15452 ], [ 91.08182, 23.55479 ], [ 91.15942, 23.73335 ], [ 91.48649, 23.99353 ], [ 91.52626, 24.07897 ], [ 91.76681, 24.11833 ], [ 91.81483, 24.22156 ], [ 91.88618, 24.16987 ], [ 91.93124, 24.22473 ], [ 92.05653, 24.16152 ], [ 92.06557, 24.34076 ], [ 92.24678, 24.39621 ], [ 92.28422, 24.50481 ], [ 92.36787, 24.51109 ], [ 92.40779, 24.74213 ], [ 92.3413, 24.8506 ], [ 92.36349, 24.92597 ], [ 92.55291, 24.85412 ], [ 92.58642, 24.893 ], [ 92.59779, 24.96106 ], [ 92.53036, 25.0468 ], [ 92.1405, 25.22608 ], [ 91.76444, 25.14441 ], [ 91.21251, 25.22684 ], [ 91.07272, 25.18683 ], [ 90.44028, 25.16156 ], [ 89.925, 25.29427 ], [ 89.89713, 25.32632 ], [ 89.95851, 25.60605 ], [ 89.90961, 25.8061 ], [ 89.94585, 25.84368 ], [ 89.95142, 25.94655 ], [ 89.78857, 26.25071 ], [ 89.66169, 26.17789 ], [ 89.63712, 25.9986 ], [ 89.38678, 26.02469 ], [ 89.20625, 26.15151 ], [ 89.15361, 26.3569 ], [ 89.01647, 26.45068 ], [ 88.95439, 26.37194 ], [ 89.07426, 26.24132 ], [ 88.95305, 26.27653 ], [ 88.78953, 26.24499 ], [ 88.82967, 26.15764 ], [ 88.78777, 26.142 ], [ 88.7109, 26.18218 ], [ 88.76173, 26.29853 ], [ 88.47255, 26.56849 ], [ 88.39741, 26.52718 ], [ 88.41061, 26.44 ], [ 88.59556, 26.36814 ], [ 88.56893, 26.31476 ], [ 88.43966, 26.29338 ], [ 88.39089, 26.17308 ], [ 88.24027, 26.11111 ], [ 88.16188, 25.91752 ], [ 88.1843, 25.74596 ], [ 88.32625, 25.74409 ], [ 88.54539, 25.52009 ], [ 88.71562, 25.42922 ], [ 88.88012, 25.48639 ], [ 88.88462, 25.3686 ], [ 89.09326, 25.27996 ], [ 89.00342, 25.15515 ], [ 88.52895, 25.14462 ], [ 88.40592, 24.85434 ], [ 88.31045, 24.84052 ], [ 88.2896, 24.90428 ], [ 88.22659, 24.89436 ], [ 88.13033, 24.57939 ], [ 88.24022, 24.40933 ], [ 88.38731, 24.32727 ], [ 88.80332, 24.24054 ], [ 88.83402, 24.11139 ], [ 88.79024, 24.02921 ], [ 88.83876, 23.95037 ], [ 88.79757, 23.89488 ], [ 88.5885, 23.84029 ], [ 88.47338, 23.62657 ], [ 88.60738, 23.49783 ], [ 88.66167, 23.51048 ], [ 88.65154, 23.45405 ], [ 88.6983, 23.43808 ], [ 88.69379, 23.29338 ], [ 88.62542, 23.23205 ], [ 88.65972, 23.20175 ], [ 88.86967, 23.17674 ], [ 88.78875, 22.95855 ], [ 88.8483, 22.87403 ], [ 88.83206, 22.53614 ], [ 89.0045, 22.13305 ], [ 88.91999, 22.03446 ], [ 88.94149, 21.87822 ], [ 88.72216, 21.91369 ], [ 88.68948, 21.99426 ], [ 88.58234, 21.99585 ], [ 88.53252, 21.86462 ], [ 88.37498, 21.76069 ], [ 88.12901, 21.74532 ], [ 88.10918, 21.89539 ], [ 88.16508, 22.06234 ], [ 88.12763, 22.14845 ], [ 88.07054, 22.14596 ], [ 88.11454, 22.06413 ], [ 87.80583, 21.6777 ], [ 87.45477, 21.53843 ], [ 87.0351, 21.42337 ], [ 86.79041, 21.13961 ], [ 86.95079, 20.75222 ], [ 86.89008, 20.73954 ], [ 87.0134, 20.66278 ], [ 86.7774, 20.47817 ], [ 86.71777, 20.38745 ], [ 86.75063, 20.37053 ], [ 86.77587, 20.43832 ], [ 86.78993, 20.34225 ], [ 86.39509, 19.93711 ], [ 86.2485, 19.84909 ], [ 85.58737, 19.66064 ], [ 85.552, 19.59668 ], [ 85.15614, 19.40915 ], [ 84.81908, 19.08654 ], [ 84.73183, 19.07947 ], [ 84.78207, 19.02061 ], [ 84.09761, 18.22502 ], [ 83.75339, 18.06144 ], [ 83.48705, 17.87441 ], [ 83.37331, 17.67121 ], [ 83.23291, 17.58459 ], [ 83.21912, 17.52165 ], [ 82.57808, 17.19675 ], [ 82.28933, 16.89047 ], [ 82.32103, 16.8064 ], [ 82.36979, 16.90795 ], [ 82.41653, 16.86454 ], [ 82.31874, 16.49881 ], [ 81.71849, 16.27664 ], [ 81.33915, 16.29618 ], [ 81.1978, 15.95542 ], [ 81.05157, 15.80697 ], [ 81.0385, 15.72344 ], [ 80.85456, 15.6374 ], [ 80.78924, 15.80227 ], [ 80.58366, 15.80716 ], [ 80.33041, 15.63086 ], [ 80.22799, 15.3711 ], [ 80.1291, 15.29617 ], [ 80.05283, 14.96011 ], [ 80.1676, 14.53536 ], [ 80.18326, 14.29483 ], [ 80.16589, 14.20204 ], [ 80.05907, 14.13365 ], [ 80.15331, 14.11296 ], [ 80.26466, 13.74781 ], [ 80.3092, 13.38578 ], [ 80.27319, 13.40076 ], [ 80.36387, 13.28166 ], [ 80.35477, 13.10548 ], [ 80.17228, 12.42291 ], [ 80.03733, 12.43813 ], [ 80.14197, 12.37297 ], [ 79.89723, 11.97895 ], [ 79.82742, 11.72444 ], [ 79.79345, 11.35152 ], [ 79.74294, 11.29863 ], [ 79.81501, 11.29228 ], [ 79.86639, 10.94169 ], [ 79.86773, 10.18317 ], [ 79.56543, 10.19361 ], [ 79.54767, 10.23331 ], [ 79.30605, 10.19348 ], [ 79.241, 10.08631 ], [ 79.24417, 9.942336 ], [ 78.96056, 9.559836 ], [ 78.9018, 9.380816 ], [ 78.92737, 9.265702 ], [ 79.16816, 9.166792 ], [ 78.84065, 9.140118 ], [ 78.3915, 9.005394 ], [ 78.13727, 8.796601 ], [ 78.1309, 8.670474 ], [ 78.17178, 8.652359 ], [ 78.10675, 8.569095 ], [ 78.09903, 8.386013 ], [ 78.01503, 8.2677 ], [ 77.75536, 8.09182 ], [ 77.53533, 8.040089 ], [ 77.50207, 7.9635 ], [ 77.342, 8.002194 ], [ 77.07748, 8.184671 ], [ 76.84521, 8.403192 ], [ 76.61252, 8.730149 ], [ 76.50655, 8.809546 ], [ 76.29711, 9.335866 ], [ 76.22504, 9.828049 ] ] ], [ [ [ 71.7506, 11.92303 ], [ 71.69055, 11.84931 ], [ 71.65644, 11.98882 ], [ 71.7506, 11.92303 ] ] ], [ [ [ 71.78249, 12.24593 ], [ 71.84545, 12.41342 ], [ 71.88197, 12.39814 ], [ 71.87389, 12.22629 ], [ 71.81519, 12.18508 ], [ 71.78249, 12.24593 ] ] ], [ [ [ 94.22206, 7.000082 ], [ 94.1699, 6.768004 ], [ 94.08923, 6.733651 ], [ 93.97717, 6.948547 ], [ 93.92762, 6.95037 ], [ 93.92178, 7.09777 ], [ 94.11662, 7.192671 ], [ 94.22206, 7.000082 ] ] ], [ [ [ 92.95645, 9.255365 ], [ 93.01053, 9.173787 ], [ 92.97154, 9.112674 ], [ 92.88269, 9.149717 ], [ 92.95645, 9.255365 ] ] ], [ [ [ 92.67747, 10.499 ], [ 92.5571, 10.51995 ], [ 92.53904, 10.77026 ], [ 92.63134, 10.8744 ], [ 92.69449, 10.87854 ], [ 92.76156, 10.69063 ], [ 92.67747, 10.499 ] ] ], [ [ [ 92.80798, 12.23638 ], [ 92.90192, 12.0351 ], [ 92.85723, 11.87845 ], [ 92.88801, 11.94228 ], [ 92.91295, 11.87934 ], [ 92.82942, 11.67803 ], [ 92.88021, 11.69038 ], [ 92.88911, 11.62762 ], [ 92.84641, 11.48486 ], [ 92.65521, 11.86224 ], [ 92.7161, 11.95379 ], [ 92.72726, 11.90942 ], [ 92.76665, 12.21221 ], [ 92.80798, 12.23638 ] ] ], [ [ [ 93.02101, 12.95224 ], [ 93.09972, 12.70712 ], [ 93.09035, 12.53216 ], [ 92.97617, 12.42752 ], [ 92.9993, 12.35164 ], [ 92.88325, 12.32791 ], [ 92.81361, 12.40223 ], [ 92.81915, 12.64988 ], [ 92.86072, 12.68984 ], [ 92.87094, 12.86663 ], [ 93.02101, 12.95224 ] ] ], [ [ [ 93.03866, 13.57493 ], [ 93.13155, 13.59652 ], [ 93.17543, 13.35451 ], [ 93.10624, 13.39829 ], [ 93.10813, 13.33028 ], [ 93.16147, 13.22343 ], [ 93.11768, 13.07302 ], [ 93.05352, 13.09226 ], [ 93.01352, 13.04942 ], [ 93.04135, 12.9992 ], [ 92.91297, 12.94002 ], [ 92.89108, 13.06325 ], [ 92.94061, 13.14823 ], [ 92.91706, 13.39899 ], [ 93.03866, 13.57493 ] ] ] ] } }
]
}
